start=new Date('2022-05-02T00:00:00.000Z').valueOf();
sats=[{"MEAN_MOTION_DOT":"0.00002393","TLE_LINE1":"1 46167U 20057BC  22121.45038029  .00002393  00000-0  17952-3 0  9991","DECAY_DATE":null,"LAUNCH_DATE":"2020-08-18","COUNTRY_CODE":"US","EPHEMERIS_TYPE":"0","SITE":"AFETR","PERIAPSIS":"545.772","TLE_LINE2":"2 46167  53.0510 158.4567 0002101  48.5826 311.5344 15.06395504 94476","INCLINATION":"53.0510","OBJECT_NAME":"STARLINK-1626","MEAN_MOTION_DDOT":"0.0000000000000","OBJECT_ID":"2020-057BC","GP_ID":"202407734","MEAN_ANOMALY":"311.5344","OBJECT_TYPE":"PAYLOAD","CENTER_NAME":"EARTH","ECCENTRICITY":"0.00021010","REV_AT_EPOCH":"9447","REF_FRAME":"TEME","FILE":"3423988","NORAD_CAT_ID":"46167","PERIOD":"95.592","ELEMENT_SET_NO":"999","CLASSIFICATION_TYPE":"U","EPOCH":"2022-05-01T10:48:32.857056","BSTAR":"0.00017952000000","RA_OF_ASC_NODE":"158.4567","RCS_SIZE":"LARGE","APOAPSIS":"548.682","TIME_SYSTEM":"UTC","ARG_OF_PERICENTER":"48.5826","SEMIMAJOR_AXIS":"6925.362","MEAN_ELEMENT_THEORY":"SGP4","MEAN_MOTION":"15.06395504"},{"FILE":"3424759","REF_FRAME":"TEME","REV_AT_EPOCH":"9454","ECCENTRICITY":"0.00018430","CENTER_NAME":"EARTH","MEAN_ANOMALY":"311.1985","OBJECT_TYPE":"PAYLOAD","GP_ID":"202471016","OBJECT_ID":"2020-057BD","MEAN_MOTION_DDOT":"0.0000000000000","OBJECT_NAME":"STARLINK-1627","INCLINATION":"53.0547","PERIAPSIS":"545.958","TLE_LINE2":"2 46168  53.0547 107.3848 0001843  48.9163 311.1985 15.06393327 94548","SITE":"AFETR","COUNTRY_CODE":"US","EPHEMERIS_TYPE":"0","LAUNCH_DATE":"2020-08-18","TLE_LINE1":"1 46168U 20057BD  22121.68624694  .00000874  00000-0  77615-4 0  9991","DECAY_DATE":null,"MEAN_MOTION_DOT":"0.00000874","MEAN_MOTION":"15.06393327","MEAN_ELEMENT_THEORY":"SGP4","SEMIMAJOR_AXIS":"6925.369","ARG_OF_PERICENTER":"48.9163","TIME_SYSTEM":"UTC","APOAPSIS":"548.510","RCS_SIZE":"LARGE","RA_OF_ASC_NODE":"107.3848","BSTAR":"0.00007761500000","EPOCH":"2022-05-01T16:28:11.735616","CLASSIFICATION_TYPE":"U","ELEMENT_SET_NO":"999","PERIOD":"95.593","NORAD_CAT_ID":"46168"},{"SEMIMAJOR_AXIS":"6927.884","MEAN_ELEMENT_THEORY":"SGP4","MEAN_MOTION":"15.05573086","BSTAR":"0.00010567000000","RA_OF_ASC_NODE":"157.8749","RCS_SIZE":"LARGE","APOAPSIS":"550.845","ARG_OF_PERICENTER":"60.4396","TIME_SYSTEM":"UTC","CLASSIFICATION_TYPE":"U","EPOCH":"2022-05-01T13:48:28.574208","NORAD_CAT_ID":"46169","PERIOD":"95.645","ELEMENT_SET_NO":"999","OBJECT_TYPE":"PAYLOAD","MEAN_ANOMALY":"299.6749","CENTER_NAME":"EARTH","ECCENTRICITY":"0.00015820","REV_AT_EPOCH":"9379","REF_FRAME":"TEME","FILE":"3424759","INCLINATION":"52.9988","OBJECT_NAME":"STARLINK-1628","MEAN_MOTION_DDOT":"0.0000000000000","OBJECT_ID":"2020-057BE","GP_ID":"202470766","LAUNCH_DATE":"2020-08-18","EPHEMERIS_TYPE":"0","COUNTRY_CODE":"US","SITE":"AFETR","TLE_LINE2":"2 46169  52.9988 157.8749 0001582  60.4396 299.6749 15.05573086 93798","PERIAPSIS":"548.653","MEAN_MOTION_DOT":"0.00001260","DECAY_DATE":null,"TLE_LINE1":"1 46169U 20057BE  22121.57533072  .00001260  00000-0  10567-3 0  9991"},{"PERIOD":"95.593","ELEMENT_SET_NO":"999","NORAD_CAT_ID":"46171","EPOCH":"2022-05-01T18:11:44.499552","CLASSIFICATION_TYPE":"U","BSTAR":"-0.00000339980000","RA_OF_ASC_NODE":"137.0621","ARG_OF_PERICENTER":"51.1143","TIME_SYSTEM":"UTC","RCS_SIZE":"LARGE","APOAPSIS":"548.570","SEMIMAJOR_AXIS":"6925.373","MEAN_ELEMENT_THEORY":"SGP4","MEAN_MOTION":"15.06392151","MEAN_MOTION_DOT":"-0.00000332","TLE_LINE1":"1 46171U 20057BG  22121.75815393 -.00000332  00000-0 -33998-5 0  9999","DECAY_DATE":null,"LAUNCH_DATE":"2020-08-18","SITE":"AFETR","TLE_LINE2":"2 46171  53.0545 137.0621 0001924  51.1143 309.0017 15.06392151 95393","PERIAPSIS":"545.905","COUNTRY_CODE":"US","EPHEMERIS_TYPE":"0","OBJECT_NAME":"STARLINK-1633","MEAN_MOTION_DDOT":"0.0000000000000","INCLINATION":"53.0545","GP_ID":"202471516","OBJECT_ID":"2020-057BG","ECCENTRICITY":"0.00019240","REV_AT_EPOCH":"9539","OBJECT_TYPE":"PAYLOAD","MEAN_ANOMALY":"309.0017","CENTER_NAME":"EARTH","FILE":"3424759","REF_FRAME":"TEME"},{"ECCENTRICITY":"0.00019550","REV_AT_EPOCH":"9479","MEAN_ANOMALY":"309.8207","OBJECT_TYPE":"PAYLOAD","CENTER_NAME":"EARTH","FILE":"3424364","REF_FRAME":"TEME","OBJECT_NAME":"STARLINK-1635","MEAN_MOTION_DDOT":"0.0000000000000","INCLINATION":"53.0522","GP_ID":"202442050","OBJECT_ID":"2020-057BH","LAUNCH_DATE":"2020-08-18","SITE":"AFETR","PERIAPSIS":"545.900","TLE_LINE2":"2 46172  53.0522 137.0067 0001955  50.2954 309.8207 15.06386971 94792","EPHEMERIS_TYPE":"0","COUNTRY_CODE":"US","MEAN_MOTION_DOT":"0.00001032","TLE_LINE1":"1 46172U 20057BH  22121.77289777  .00001032  00000-0  88185-4 0  9996","DECAY_DATE":null,"SEMIMAJOR_AXIS":"6925.388","MEAN_ELEMENT_THEORY":"SGP4","MEAN_MOTION":"15.06386971","BSTAR":"0.00008818500000","RA_OF_ASC_NODE":"137.0067","ARG_OF_PERICENTER":"50.2954","TIME_SYSTEM":"UTC","RCS_SIZE":"LARGE","APOAPSIS":"548.607","EPOCH":"2022-05-01T18:32:58.367328","CLASSIFICATION_TYPE":"U","PERIOD":"95.593","ELEMENT_SET_NO":"999","NORAD_CAT_ID":"46172"},{"SITE":"AFETR","TLE_LINE2":"2 46173  53.0536 156.8052 0002082  42.1020 318.0129 15.06389910 93865","PERIAPSIS":"545.803","EPHEMERIS_TYPE":"0","COUNTRY_CODE":"US","LAUNCH_DATE":"2020-08-18","TLE_LINE1":"1 46173U 20057BJ  22121.81897435  .00001104  00000-0  93020-4 0  9992","DECAY_DATE":null,"MEAN_MOTION_DOT":"0.00001104","FILE":"3424759","REF_FRAME":"TEME","ECCENTRICITY":"0.00020820","REV_AT_EPOCH":"9386","OBJECT_TYPE":"PAYLOAD","MEAN_ANOMALY":"318.0129","CENTER_NAME":"EARTH","GP_ID":"202470516","OBJECT_ID":"2020-057BJ","OBJECT_NAME":"STARLINK-1640","MEAN_MOTION_DDOT":"0.0000000000000","INCLINATION":"53.0536","EPOCH":"2022-05-01T19:39:19.383840","CLASSIFICATION_TYPE":"U","PERIOD":"95.593","ELEMENT_SET_NO":"999","NORAD_CAT_ID":"46173","MEAN_ELEMENT_THEORY":"SGP4","MEAN_MOTION":"15.06389910","SEMIMAJOR_AXIS":"6925.379","ARG_OF_PERICENTER":"42.1020","TIME_SYSTEM":"UTC","RCS_SIZE":"LARGE","APOAPSIS":"548.686","BSTAR":"0.00009302000000","RA_OF_ASC_NODE":"156.8052"},{"ELEMENT_SET_NO":"999","PERIOD":"95.593","NORAD_CAT_ID":"46174","EPOCH":"2022-05-01T19:49:56.400672","CLASSIFICATION_TYPE":"U","TIME_SYSTEM":"UTC","ARG_OF_PERICENTER":"42.3157","APOAPSIS":"548.610","RCS_SIZE":"LARGE","RA_OF_ASC_NODE":"156.7693","BSTAR":"0.00011839000000","MEAN_MOTION":"15.06391028","MEAN_ELEMENT_THEORY":"SGP4","SEMIMAJOR_AXIS":"6925.376","DECAY_DATE":null,"TLE_LINE1":"1 46174U 20057BK  22121.82634723  .00001482  00000-0  11839-3 0  9999","MEAN_MOTION_DOT":"0.00001482","TLE_LINE2":"2 46174  53.0549 156.7693 0001976  42.3157 317.7984 15.06391028 93862","PERIAPSIS":"545.873","SITE":"AFETR","COUNTRY_CODE":"US","EPHEMERIS_TYPE":"0","LAUNCH_DATE":"2020-08-18","GP_ID":"202471267","OBJECT_ID":"2020-057BK","MEAN_MOTION_DDOT":"0.0000000000000","OBJECT_NAME":"STARLINK-1641","INCLINATION":"53.0549","FILE":"3424759","REF_FRAME":"TEME","REV_AT_EPOCH":"9386","ECCENTRICITY":"0.00019760","CENTER_NAME":"EARTH","MEAN_ANOMALY":"317.7984","OBJECT_TYPE":"PAYLOAD"},{"OBJECT_ID":"2020-062A","GP_ID":"202472271","INCLINATION":"53.0544","OBJECT_NAME":"STARLINK-1734","MEAN_MOTION_DDOT":"0.0000000000000","REF_FRAME":"TEME","FILE":"3424759","OBJECT_TYPE":"PAYLOAD","MEAN_ANOMALY":"316.0620","CENTER_NAME":"EARTH","ECCENTRICITY":"0.00019730","REV_AT_EPOCH":"9335","DECAY_DATE":null,"TLE_LINE1":"1 46325U 20062A   22121.83787352 -.00000076  00000-0  13833-4 0  9997","MEAN_MOTION_DOT":"-0.00000076","EPHEMERIS_TYPE":"0","COUNTRY_CODE":"US","SITE":"AFETR","PERIAPSIS":"545.888","TLE_LINE2":"2 46325  53.0544 171.7192 0001973  44.0526 316.0620 15.06386837 93357","LAUNCH_DATE":"2020-09-03","RCS_SIZE":"LARGE","APOAPSIS":"548.620","ARG_OF_PERICENTER":"44.0526","TIME_SYSTEM":"UTC","BSTAR":"0.00001383300000","RA_OF_ASC_NODE":"171.7192","MEAN_ELEMENT_THEORY":"SGP4","MEAN_MOTION":"15.06386837","SEMIMAJOR_AXIS":"6925.389","NORAD_CAT_ID":"46325","PERIOD":"95.593","ELEMENT_SET_NO":"999","CLASSIFICATION_TYPE":"U","EPOCH":"2022-05-01T20:06:32.272128"},{"RCS_SIZE":"LARGE","APOAPSIS":"548.512","ARG_OF_PERICENTER":"37.7511","TIME_SYSTEM":"UTC","BSTAR":"0.00027689000000","RA_OF_ASC_NODE":"217.1235","MEAN_ELEMENT_THEORY":"SGP4","MEAN_MOTION":"15.06392935","SEMIMAJOR_AXIS":"6925.370","NORAD_CAT_ID":"46326","PERIOD":"95.593","ELEMENT_SET_NO":"999","CLASSIFICATION_TYPE":"U","EPOCH":"2022-05-01T17:54:26.223840","OBJECT_ID":"2020-062B","GP_ID":"202471028","INCLINATION":"53.0555","OBJECT_NAME":"STARLINK-1654","MEAN_MOTION_DDOT":"0.0000000000000","REF_FRAME":"TEME","FILE":"3424759","OBJECT_TYPE":"PAYLOAD","MEAN_ANOMALY":"322.3607","CENTER_NAME":"EARTH","ECCENTRICITY":"0.00018430","REV_AT_EPOCH":"9210","DECAY_DATE":null,"TLE_LINE1":"1 46326U 20062B   22121.74613685  .00003844  00000-0  27689-3 0  9993","MEAN_MOTION_DOT":"0.00003844","EPHEMERIS_TYPE":"0","COUNTRY_CODE":"US","SITE":"AFETR","TLE_LINE2":"2 46326  53.0555 217.1235 0001843  37.7511 322.3607 15.06392935 92105","PERIAPSIS":"545.959","LAUNCH_DATE":"2020-09-03"},{"COUNTRY_CODE":"US","EPHEMERIS_TYPE":"0","TLE_LINE2":"2 46327  53.0524 217.5234 0001572  71.3953 288.7206 15.06382421 92084","PERIAPSIS":"546.179","SITE":"AFETR","LAUNCH_DATE":"2020-09-03","TLE_LINE1":"1 46327U 20062C   22121.65863968  .00000711  00000-0  66657-4 0  9994","DECAY_DATE":null,"MEAN_MOTION_DOT":"0.00000711","REF_FRAME":"TEME","FILE":"3424759","CENTER_NAME":"EARTH","MEAN_ANOMALY":"288.7206","OBJECT_TYPE":"PAYLOAD","REV_AT_EPOCH":"9208","ECCENTRICITY":"0.00015720","OBJECT_ID":"2020-062C","GP_ID":"202470778","INCLINATION":"53.0524","MEAN_MOTION_DDOT":"0.0000000000000","OBJECT_NAME":"STARLINK-1673","CLASSIFICATION_TYPE":"U","EPOCH":"2022-05-01T15:48:26.468352","NORAD_CAT_ID":"46327","ELEMENT_SET_NO":"999","PERIOD":"95.593","MEAN_MOTION":"15.06382421","MEAN_ELEMENT_THEORY":"SGP4","SEMIMAJOR_AXIS":"6925.402","APOAPSIS":"548.356","RCS_SIZE":"LARGE","TIME_SYSTEM":"UTC","ARG_OF_PERICENTER":"71.3953","RA_OF_ASC_NODE":"217.5234","BSTAR":"0.00006665700000"}];
